{
"type": "FeatureCollection",
"name": "Patan",
"crs": { "type": "name", "properties": { "name": "urn:ogc:def:crs:OGC:1.3:CRS84" } },
"features": [
{ "type": "Feature", "properties": { "NAME_3": "Patan" }, "geometry": { "type": "MultiPolygon", "coordinates": [ [ [ [ 72.109649657000091, 24.045410156000173 ], [ 72.113105774000189, 24.044469834000154 ], [ 72.119331361000036, 24.040700912000091 ], [ 72.124298096000018, 24.039247512000088 ], [ 72.132942199000183, 24.037981033 ], [ 72.145759582000096, 24.041740418000131 ], [ 72.147697448000031, 24.050098420000097 ], [ 72.150962830000026, 24.054380416000015 ], [ 72.155311584000174, 24.058889390000047 ], [ 72.161537171000191, 24.061820984000178 ], [ 72.171562196000195, 24.072540284000127 ], [ 72.171821593000118, 24.077390672000035 ], [ 72.170539856000175, 24.081611634000183 ], [ 72.164009094, 24.090200424000102 ], [ 72.166748048000159, 24.101789475000032 ], [ 72.161003113000049, 24.112260818000038 ], [ 72.152893066000047, 24.110790252000186 ], [ 72.143150330000083, 24.110828401000049 ], [ 72.133003234000171, 24.108800888000076 ], [ 72.108802795000031, 24.107160568999973 ], [ 72.107696533000137, 24.110719681000148 ], [ 72.108352661000083, 24.123590469000135 ], [ 72.125396728000169, 24.118801116999975 ], [ 72.130203248000157, 24.120290757000134 ], [ 72.134666442000139, 24.124219894000078 ], [ 72.137413026000161, 24.138210297000114 ], [ 72.141479491000098, 24.139230729000133 ], [ 72.153846741, 24.137889862000122 ], [ 72.163719178000179, 24.135770797000021 ], [ 72.167892456000175, 24.131380082000135 ], [ 72.168510438000112, 24.120830537000074 ], [ 72.166465760000051, 24.113309860000129 ], [ 72.168716430000131, 24.111419679000164 ], [ 72.173606872000107, 24.110610963 ], [ 72.18785858200016, 24.103780746000041 ], [ 72.194061279999971, 24.101819992000173 ], [ 72.20009613000019, 24.104520798000181 ], [ 72.202285766000159, 24.109081269000114 ], [ 72.201766969000118, 24.114040374000183 ], [ 72.203628541000114, 24.1183395380001 ], [ 72.211723328000119, 24.122810365000078 ], [ 72.21585845900006, 24.126390458000117 ], [ 72.211570741, 24.138700485000129 ], [ 72.233726500999978, 24.12795066800004 ], [ 72.234672546000013, 24.122371674000135 ], [ 72.236000061000198, 24.11893272400016 ], [ 72.239952088000052, 24.117420197000115 ], [ 72.240600586000085, 24.115800857000067 ], [ 72.233673096000132, 24.112491609000188 ], [ 72.22853088300019, 24.108100891000163 ], [ 72.223472596000079, 24.10221290700008 ], [ 72.227592469000172, 24.089509965000104 ], [ 72.227859497000054, 24.07859039300007 ], [ 72.229637145000027, 24.071680069000138 ], [ 72.237739562000115, 24.063438415000121 ], [ 72.236633300000108, 24.056880951000096 ], [ 72.253280640000128, 24.055032731000097 ], [ 72.256683350000117, 24.048749924000106 ], [ 72.256416320000028, 24.04076004000018 ], [ 72.26248168900014, 24.02760124100007 ], [ 72.25681304800014, 24.02178955100004 ], [ 72.2493667600001, 24.02203941300013 ], [ 72.250343323000152, 24.011278153000035 ], [ 72.241477967000094, 24.015529633000085 ], [ 72.236877442000036, 24.008119583000166 ], [ 72.233390808000195, 24.004230499000073 ], [ 72.230506898000158, 24.005161284999986 ], [ 72.231117249000135, 23.998809814000026 ], [ 72.225196838999977, 23.999240875000055 ], [ 72.211479187000066, 23.999509812000042 ], [ 72.194122315000186, 23.998390197000049 ], [ 72.189987182000039, 23.996120453000174 ], [ 72.193267823000156, 23.9906291960001 ], [ 72.204101563, 23.982370377000052 ], [ 72.20626068200005, 23.976192475000119 ], [ 72.206268310000155, 23.969432831000063 ], [ 72.205169678, 23.96767044000012 ], [ 72.193931579000036, 23.961349487000177 ], [ 72.192390442000146, 23.95960044900005 ], [ 72.197113038000055, 23.937419893000026 ], [ 72.202606201000094, 23.939880371000186 ], [ 72.21750640900018, 23.942821503000175 ], [ 72.221130371000186, 23.942342758000109 ], [ 72.225257874000192, 23.940031052000109 ], [ 72.231681823000088, 23.938962937000156 ], [ 72.237525940000069, 23.939910889000032 ], [ 72.243103028000178, 23.942090989000121 ], [ 72.248359680000078, 23.942598342999986 ], [ 72.255378723000035, 23.94092941200006 ], [ 72.259300232000101, 23.937650681000093 ], [ 72.259689331, 23.932449340000062 ], [ 72.257629394000048, 23.920429228999978 ], [ 72.260513306000064, 23.912269592000143 ], [ 72.259330749000185, 23.907861710000134 ], [ 72.252792358000193, 23.895130158000086 ], [ 72.253646850000052, 23.882761002 ], [ 72.256050110000103, 23.876871108000103 ], [ 72.256202697000049, 23.870399475000113 ], [ 72.262863159000062, 23.87080955600004 ], [ 72.266983032000155, 23.874059676 ], [ 72.289787293000074, 23.879331588000127 ], [ 72.293258666000156, 23.875720979000107 ], [ 72.295806885000047, 23.869079590000069 ], [ 72.299079894000045, 23.863399507000054 ], [ 72.2996215820001, 23.859231949 ], [ 72.297828675000176, 23.846218109000063 ], [ 72.300117492000084, 23.838260651000155 ], [ 72.304595947, 23.836179734000041 ], [ 72.30763244700006, 23.832410812000091 ], [ 72.310607909000055, 23.825859070000149 ], [ 72.314109803000065, 23.821559906000061 ], [ 72.319961547000048, 23.817600251000101 ], [ 72.322937012000125, 23.812509537000096 ], [ 72.320716858000083, 23.804769517000011 ], [ 72.308006287000126, 23.797412872 ], [ 72.305351258000087, 23.793191909000086 ], [ 72.303939819000107, 23.78572082400018 ], [ 72.302932739000084, 23.770219803000089 ], [ 72.318817139000032, 23.763931275000061 ], [ 72.327552796000077, 23.755798340000126 ], [ 72.336647034000123, 23.749340057000154 ], [ 72.342346191000104, 23.741399765000097 ], [ 72.344177247000118, 23.734952927999984 ], [ 72.34394073600015, 23.728771210000104 ], [ 72.342872619000161, 23.722490311000115 ], [ 72.337966919000166, 23.716100692000168 ], [ 72.329788208000139, 23.70742035000012 ], [ 72.328323364000084, 23.703689575000112 ], [ 72.328971862000117, 23.697162629000047 ], [ 72.325607299000183, 23.694061279000152 ], [ 72.321197510000047, 23.693071365000094 ], [ 72.316131593000023, 23.699661254000091 ], [ 72.311752320000153, 23.703699112999971 ], [ 72.301506043000131, 23.704639435000161 ], [ 72.294982910000158, 23.704061508000052 ], [ 72.289253236000036, 23.705289840000091 ], [ 72.286003113000163, 23.707330704000185 ], [ 72.274337769000056, 23.717729568000095 ], [ 72.271018982000157, 23.717920304000074 ], [ 72.268661499000075, 23.712150574000191 ], [ 72.264205932000095, 23.709199906000094 ], [ 72.25723266600005, 23.709011077000014 ], [ 72.245216370000037, 23.710590363000165 ], [ 72.241950989000145, 23.714651109000044 ], [ 72.241989136000029, 23.721740723999972 ], [ 72.244171143000187, 23.731510162000063 ], [ 72.24231719900007, 23.737220764000085 ], [ 72.237213135, 23.743509294000091 ], [ 72.233673096000132, 23.746538163000139 ], [ 72.222267152000143, 23.746772767000039 ], [ 72.205566407000049, 23.748380662000102 ], [ 72.204490661000079, 23.752899171000138 ], [ 72.204986572000166, 23.757339477000187 ], [ 72.203666688000169, 23.760320664000176 ], [ 72.19853210500014, 23.763441085000181 ], [ 72.176055909000127, 23.752422334000187 ], [ 72.170639038000047, 23.752040863000161 ], [ 72.164962769000113, 23.755630494000059 ], [ 72.157287597000163, 23.759098054000106 ], [ 72.142257690000122, 23.76124954300019 ], [ 72.14229583700012, 23.756679535999979 ], [ 72.14009857200017, 23.753219604000094 ], [ 72.131958008000197, 23.74854850700001 ], [ 72.126556397000115, 23.748159409000152 ], [ 72.126228332000039, 23.743429185000139 ], [ 72.123207093000076, 23.741081238000106 ], [ 72.117256164000196, 23.741741181000066 ], [ 72.115470885000036, 23.743690490000176 ], [ 72.113471984000114, 23.748529434000147 ], [ 72.110916137000117, 23.750022889000149 ], [ 72.102706909000119, 23.75155067500009 ], [ 72.10069275, 23.756032943000037 ], [ 72.09072876, 23.754890442000146 ], [ 72.089836121000133, 23.759349823000036 ], [ 72.087905883000133, 23.763090133999981 ], [ 72.076255798000147, 23.763189316000023 ], [ 72.061698913000157, 23.758779527000115 ], [ 72.050247191000153, 23.756559373000073 ], [ 72.043869018000066, 23.759069443000101 ], [ 72.042648315000065, 23.765832902000113 ], [ 72.041358947000106, 23.776149751000105 ], [ 72.040252685000098, 23.779890061000117 ], [ 72.038078308000195, 23.783590317000062 ], [ 72.03476715100004, 23.78453064100006 ], [ 72.031387330000086, 23.784290315000021 ], [ 72.029266358000143, 23.783348083000078 ], [ 72.026947022000058, 23.783599855000091 ], [ 72.013031005000187, 23.786661148000178 ], [ 72.008049011000082, 23.788198471000101 ], [ 72.001632691000111, 23.796319961000108 ], [ 71.998962403000178, 23.803350448000117 ], [ 71.993232727000191, 23.831880570000123 ], [ 71.985557555000014, 23.833959580000169 ], [ 71.978561402000196, 23.838251113000069 ], [ 71.974266053000122, 23.845239639000113 ], [ 71.974609375000114, 23.854101181000033 ], [ 71.986198425000111, 23.862100601000066 ], [ 71.98750305100009, 23.867080689000147 ], [ 71.981857299000126, 23.886920929000041 ], [ 71.980552672999977, 23.889530181000111 ], [ 71.982505799000137, 23.897109986000146 ], [ 71.981010437, 23.902080537000074 ], [ 71.977676391000045, 23.906509399000072 ], [ 71.974029542000039, 23.909259796000185 ], [ 71.953437805000021, 23.919202804000065 ], [ 71.949356078999983, 23.923530579000101 ], [ 71.942787171000077, 23.934389115000045 ], [ 71.941673279000099, 23.939319612000077 ], [ 71.937591552000129, 23.946220398000094 ], [ 71.937408446000063, 23.95013046300005 ], [ 71.945137023000143, 23.957660676000046 ], [ 71.952758788000097, 23.961740495000015 ], [ 71.954177857000161, 23.969261170000152 ], [ 71.953536987000064, 23.971090318000108 ], [ 71.941436767000027, 23.973739625000064 ], [ 71.935859681000125, 23.975799561000144 ], [ 71.931991577000133, 23.998100281 ], [ 71.934165954000036, 24.005561828 ], [ 71.93530273500005, 24.00677108800005 ], [ 71.938819885000044, 24.007890702000168 ], [ 71.94597625800003, 24.007709504000104 ], [ 71.960411072000113, 24.005529404000185 ], [ 71.962646484000174, 24.003900528000031 ], [ 71.960762023000143, 23.998231888000191 ], [ 71.963600159000123, 23.993820191000111 ], [ 71.971397399000125, 23.990760803000114 ], [ 71.985389710000106, 23.994800569 ], [ 71.992286683000088, 23.994859697000152 ], [ 71.997512818000075, 23.990579606000097 ], [ 71.999153137000121, 23.98666000500009 ], [ 72.002326966000112, 23.982879637999986 ], [ 72.004158018999988, 23.96911811800004 ], [ 72.007667541000103, 23.965259552000134 ], [ 72.009033203000172, 23.964731217000065 ], [ 72.012031555000078, 23.967121125000062 ], [ 72.010803223000039, 23.974161149000111 ], [ 72.020500182000092, 23.983770370000173 ], [ 72.026725769000166, 23.978120805000174 ], [ 72.031501770000148, 23.977838517000066 ], [ 72.043807984000182, 23.980079652000143 ], [ 72.048156738000102, 23.984170914000117 ], [ 72.05388641400009, 23.993539810000073 ], [ 72.054901124000196, 23.995470048000072 ], [ 72.027397156000177, 24.016031266000141 ], [ 72.026863098000035, 24.029239655000083 ], [ 72.02406310900011, 24.033960342000114 ], [ 72.022796630000187, 24.037580491000085 ], [ 72.038421632, 24.052602768000042 ], [ 72.04998779400006, 24.036100387000033 ], [ 72.05650329700012, 24.031900405000158 ], [ 72.069686890000185, 24.019348144000105 ], [ 72.073722839000084, 24.018280029000096 ], [ 72.090667725, 24.030221939000171 ], [ 72.096069336000085, 24.027732850000177 ], [ 72.101440430000082, 24.021669388000134 ], [ 72.107902528000068, 24.018989563 ], [ 72.108322143000066, 24.024248124000167 ], [ 72.105407716000059, 24.045549392000169 ], [ 72.109649657000091, 24.045410156000173 ] ] ] ] } }
]
}
